{
    "links": {
        "self": "http://www.neowsapp.com/rest/v1/neo/3455313?api_key=iIulBulltgU6a56xZRHN4H3l9WmuAYTsLGpBGhQ2"
    },
    "id": "3455313",
    "neo_reference_id": "3455313",
    "name": "(2009 FO28)",
    "designation": "2009 FO28",
    "nasa_jpl_url": "http://ssd.jpl.nasa.gov/sbdb.cgi?sstr=3455313",
    "absolute_magnitude_h": 21.1,
    "estimated_diameter": {
        "kilometers": {
            "estimated_diameter_min": 0.160160338,
            "estimated_diameter_max": 0.358129403
        },
        "meters": {
            "estimated_diameter_min": 160.1603379786,
            "estimated_diameter_max": 358.1294030194
        },
        "miles": {
            "estimated_diameter_min": 0.0995189894,
            "estimated_diameter_max": 0.2225312253
        },
        "feet": {
            "estimated_diameter_min": 525.4604432536,
            "estimated_diameter_max": 1174.9652706022
        }
    },
    "is_potentially_hazardous_asteroid": false,
    "close_approach_data": [
        {
            "close_approach_date": "2009-04-10",
            "close_approach_date_full": "2009-Apr-10 23:07",
            "epoch_date_close_approach": 1239404820000,
            "relative_velocity": {
                "kilometers_per_second": "17.4336050208",
                "kilometers_per_hour": "62760.9780747371",
                "miles_per_hour": "38997.2310709387"
            },
            "miss_distance": {
                "astronomical": "0.1009916607",
                "lunar": "39.2857560123",
                "kilometers": "15108137.328482709",
                "miles": "9387761.2196470242"
            },
            "orbiting_body": "Earth"
        }
    ],
    "orbital_data": {
        "orbit_id": "19",
        "orbit_determination_date": "2017-04-06 09:00:53",
        "first_observation_date": "2009-03-25",
        "last_observation_date": "2009-04-12",
        "data_arc_in_days": 18,
        "observations_used": 113,
        "orbit_uncertainty": "8",
        "minimum_orbit_intersection": ".10087",
        "jupiter_tisserand_invariant": "3.237",
        "epoch_osculation": "2454920.5",
        "eccentricity": ".6179121006273045",
        "semi_major_axis": "2.309321890055848",
        "inclination": "20.15787290765502",
        "ascending_node_longitude": "188.6399851275563",
        "orbital_period": "1281.814367770744",
        "perihelion_distance": ".882363949946822",
        "perihelion_argument": "69.33838072616767",
        "aphelion_distance": "3.736279830164875",
        "perihelion_time": "2454975.012496473027",
        "mean_anomaly": "344.6900618188424",
        "mean_motion": ".2808518995040529",
        "equinox": "J2000",
        "orbit_class": {
            "orbit_class_type": "APO",
            "orbit_class_description": "Near-Earth asteroid orbits which cross the Earth’s orbit similar to that of 1862 Apollo",
            "orbit_class_range": "a (semi-major axis) > 1.0 AU; q (perihelion) < 1.017 AU"
        }
    },
    "is_sentry_object": false
}